GLOBALSTAR M023         
1 25621U 99004A   25301.52936476 -.00000126  00000+0 -12139-3 0  9990
2 25621  52.0135   7.4087 0010352  63.5291  44.9654 12.62507357232576
GLOBALSTAR M040         
1 25622U 99004B   25301.64592089 -.00000031  00000+0  40941-3 0  9998
2 25622  51.9945  11.4057 0000460 351.1709 164.1319 12.62021051232109
GLOBALSTAR M036         
1 25623U 99004C   25301.12376343 -.00000006  00000+0  11133-2 0  9997
2 25623  51.9963 249.9247 0010626 307.4054  66.1021 11.86613108194766
GLOBALSTAR M038         
1 25624U 99004D   25301.56837006 -.00000067  00000+0  23417-3 0  9990
2 25624  51.9991  47.4439 0001279 350.7228  22.3167 12.32534588218825
GLOBALSTAR M022         
1 25649U 99012A   25301.22455284 -.00000080  00000+0  83135-4 0  9992
2 25649  52.0043 289.2442 0002900  73.3273 299.6896 12.02505155192387
GLOBALSTAR M041         
1 25650U 99012B   25301.61012925 -.00000108  00000+0 -28890-3 0  9996
2 25650  52.0000 173.7148 0000719 186.3249 173.7578 11.96680289194257
GLOBALSTAR M046         
1 25651U 99012C   25301.06428072 -.00000112  00000+0 -25896-3 0  9998
2 25651  52.0052 234.9631 0001940 139.8376 233.7987 12.09415528199740
GLOBALSTAR M037         
1 25652U 99012D   25301.57684351 -.00000082  00000+0  12292-3 0  9990
2 25652  51.9979 137.8341 0002903 110.0476 284.4155 12.62453353228120
